#aV2008  7 31  0  0   .00000000      96 DD+AD WGS84 FIT  NGA
## 1490 345600.00000000   900.00000000 54678  .0000000000000
+   31     2  3  4  5  6  7  8  9 10 11 12 13 14 15 16 17 18
+         19 20 21 22 23 24 25 26 27 28 29 30 31 32  0  0  0
+          0  0  0  0  0  0  0  0  0  0  0  0  0  0  0  0  0
+          0  0  0  0  0  0  0  0  0  0  0  0  0  0  0  0  0
+          0  0  0  0  0  0  0  0  0  0  0  0  0  0  0  0  0
++         0  0  0  0  0  0  0  0  0  0  0  0  0  0  0  0  0
++         0  0  0  0  0  0  0  0  0  0  0  0  0  0  0  0  0
++         0  0  0  0  0  0  0  0  0  0  0  0  0  0  0  0  0
++         0  0  0  0  0  0  0  0  0  0  0  0  0  0  0  0  0
++         0  0  0  0  0  0  0  0  0  0  0  0  0  0  0  0  0
%c cc cc ccc ccc cccc cccc cccc cccc ccccc ccccc ccccc ccccc
%c cc cc ccc ccc cccc cccc cccc cccc ccccc ccccc ccccc ccccc
%f  0.0000000  0.000000000  0.00000000000  0.000000000000000
%f  0.0000000  0.000000000  0.00000000000  0.000000000000000
%i    0    0    0    0      0      0      0      0         0
%i    0    0    0    0      0      0      0      0         0
/*      NGA, ST. LOUIS,MO.                                  
/*   EPHEMERIS COMPUTED FROM  3 DAYS OF DATA                
/* CCCCCCCCCCCCCCCCCCCCCCCCCCCCCCCCCCCCCCCCCCCCCCCCCCCCCCCCC
/* CCCCCCCCCCCCCCCCCCCCCCCCCCCCCCCCCCCCCCCCCCCCCCCCCCCCCCCCC
*  2008  7 31  9 45   .00000000                                                 
P  2  21665.429588 -10239.053681 -11194.299784    198.250458                    
V  2  -7769.718227  12256.091559 -26950.404873      -.026860                    
P  3 -14593.275766   6154.643440  21048.224426    263.137750                    
V  3  -9978.344607 -25627.802063    923.717421       .051175                    
P  4  19245.517482    158.685614 -18551.547072   -129.761599                    
V  4 -15679.714302  17286.088437 -15841.854790      -.101890                    
P  5   2129.880330 -15587.679700 -21687.083184   -355.797313                    
V  5  26510.447083   4733.208930   -670.920749      -.204154                    
P  6 -16152.480140    981.840488  21254.478334    164.984446                    
V  6  -7299.550264 -25634.049312  -4415.852956       .021896                    
P  7   -232.311168  18640.205831  18856.214819      2.980444                    
V  7 -18123.573079  15844.639731 -15942.082671       .046708                    
P  8  11249.279170   9581.072424  22009.708870   -163.987929                    
V  8 -21055.583548  18538.674994   2214.438544      -.015084                    
P  9  13069.095659 -21819.923911  -8028.744617      7.805706                    
V  9   8084.876485  -5229.290112  29899.077928       .017345                    
P 10  23197.034442  -2330.940776  12885.169986     -3.407232                    
V 10  15158.950177   6718.085642 -25481.501235      -.003350                    
P 11  -8793.214228  23760.460274  -7548.849554     22.462327                    
V 11  -9457.231570   5170.563496  28213.435156      -.006118                    
P 12   7866.286543 -13285.093533 -21518.438246   -355.806956                    
V 12  26383.086291   7836.713271   4885.149815       .009293                    
P 13   5811.518816  25911.265887    597.423307    265.889445                    
V 13  -1482.239924   1232.471480 -32488.117812       .013581                    
P 14 -14290.050268 -15751.088266 -15879.030927   -237.792628                    
V 14  -3229.898674 -20032.673269  22524.479067       .044658                    
P 15   9258.528136 -16329.280499  18808.864488   -151.927458                    
V 15   7700.772279  22620.182115  15876.032171      -.064453                    
P 16 -25305.765284  -1502.179999   8339.646386    114.471636                    
V 16  -9360.666057  -5138.024371 -29354.548088      -.018297                    
P 17  15189.528980  14894.380017 -15961.480075     38.816425                    
V 17   3055.900223  20140.701446  21476.673493       .001750                    
P 18 -13060.984458 -16576.753968  16538.433626   -150.284110                    
V 18  20136.176648   4416.069175  20200.142457       .042353                    
P 19  -9921.832090  16616.199523  18185.547066     34.191857                    
V 19  -5893.227158 -22305.310939  17439.616825       .003935                    
P 20  -5661.181132  14590.803704 -21574.609394    108.729521                    
V 20 -26265.526870  -6976.379425   2217.635942      -.008427                    
P 21  -5767.197736 -15614.050380  20788.713301     56.146287                    
V 21  19868.529062 -17055.027653  -7988.534064      -.013404                    
P 22 -23087.787837 -11888.196792   5889.103129    211.492105                    
V 22   7888.519168   -750.656925  30161.943751      -.000629                    
P 23  -1177.344128  24263.785302 -10488.139580    366.881353                    
V 23  -5592.065206 -12290.432853 -28232.887293       .017242                    
P 24   9195.782811 -21134.516269  13600.663693    113.528829                    
V 24  14088.053728  -9607.275366 -24484.329752       .027911                    
P 25  -5499.663347  21996.640037  14333.812520   -207.279257                    
V 25 -12639.035551  12260.744852 -24096.103067      -.110714                    
P 26  11383.863789 -11158.271787  20630.645286    301.923926                    
V 26   6562.071909  26613.558576  11035.930121       .064476                    
P 27   3454.340076  17223.962268  20561.589923    206.684351                    
V 27 -17145.420031  17699.966920 -12482.969624       .028248                    
P 28  22522.006330  12438.567143   7650.012946    -21.514433                    
V 28  -9346.124019   -571.188011  29646.489820      -.002497                    
P 29  -4440.579413 -26078.514541  -2444.961212    -40.773732                    
V 29   3494.697930   2503.677056 -31508.528616       .004830                    
P 30  -7542.617598 -16372.492629 -19888.336368     88.690571                    
V 30  24130.817969   4418.019083 -12922.534737       .018646                    
P 31 -19687.649749   2588.133929 -17493.920981    -24.992326                    
V 31  14930.241421 -16966.908166 -18985.404618      -.000767                    
P 32 -13741.967249   9653.466306 -20102.572889    310.741878                    
V 32 -24490.100301 -10240.103924  11749.882630       .022966                    
EOF
